KINEIS-2D               
1 62930U 25028C   26189.41072843  .00001275  00000+0  19361-3 0  9999
2 62930  97.9275 241.4474 0004532 124.2537 235.9102 14.75755011 75847
KINEIS-2E               
1 62931U 25028D   26189.42887351  .00001156  00000+0  17089-3 0  9992
2 62931  97.8944 240.6094 0002128 100.3448 259.8003 14.77075646 75918
KINEIS-2A               
1 62932U 25028E   26189.41893459  .00001027  00000+0  16623-3 0  9998
2 62932  98.1290 244.8365 0006065  99.9378 260.2514 14.73439136 75730
KINEIS-2B               
1 62934U 25028G   26189.46420551  .00000982  00000+0  15904-3 0  9994
2 62934  97.9657 241.9395 0005023  88.9040 271.2744 14.73440240 75795
KINEIS-4E               
1 63300U 25056A   26189.52130714  .00001150  00000+0  18962-3 0  9994
2 63300  97.9062 312.8269 0003055  96.8746 263.2809 14.72290052 70268
KINEIS-4C               
1 63301U 25056B   26189.53378456  .00001164  00000+0  19185-3 0  9996
2 63301  97.9115 313.0835 0002343 240.6674 119.4299 14.72311623 70272
KINEIS-4D               
1 63302U 25056C   26189.53737446  .00001115  00000+0  18362-3 0  9997
2 63302  97.9036 313.0655 0001115 254.6996 105.4088 14.72413639 70274
KINEIS-4A               
1 63303U 25056D   26189.57231321  .00001132  00000+0  18672-3 0  9996
2 63303  97.9131 313.0442 0001590 165.3006 194.8248 14.72321268 70278
KINEIS-4B               
1 63304U 25056E   26189.48704971  .00001128  00000+0  18603-3 0  9992
2 63304  97.9142 313.0176 0004754 216.0026 144.0862 14.72315549 70258
