{"fetched_at":"2026-07-08T17:59:53.497Z","source":"https://celestrak.org/NORAD/elements/gp.php?NAME=KINEIS&FORMAT=JSON","constellation":"kineis","records":[{"OBJECT_NAME":"KINEIS-2D","OBJECT_ID":"2025-028C","EPOCH":"2026-07-08T09:51:26.936352","CLASSIFICATION_TYPE":"U","MEAN_MOTION":14.75755011,"ECCENTRICITY":0.0004532,"INCLINATION":97.9275,"RA_OF_ASC_NODE":241.4474,"ARG_OF_PERICENTER":124.2537,"MEAN_ANOMALY":235.9102,"EPHEMERIS_TYPE":0,"NORAD_CAT_ID":62930,"ELEMENT_SET_NO":999,"REV_AT_EPOCH":7584,"BSTAR":0.00019361,"MEAN_MOTION_DOT":0.00001275,"MEAN_MOTION_DDOT":0},{"OBJECT_NAME":"KINEIS-2E","OBJECT_ID":"2025-028D","EPOCH":"2026-07-08T10:17:34.671264","CLASSIFICATION_TYPE":"U","MEAN_MOTION":14.77075646,"ECCENTRICITY":0.0002128,"INCLINATION":97.8944,"RA_OF_ASC_NODE":240.6094,"ARG_OF_PERICENTER":100.3448,"MEAN_ANOMALY":259.8003,"EPHEMERIS_TYPE":0,"NORAD_CAT_ID":62931,"ELEMENT_SET_NO":999,"REV_AT_EPOCH":7591,"BSTAR":0.00017089,"MEAN_MOTION_DOT":0.00001156,"MEAN_MOTION_DDOT":0},{"OBJECT_NAME":"KINEIS-2A","OBJECT_ID":"2025-028E","EPOCH":"2026-07-08T10:03:15.948576","CLASSIFICATION_TYPE":"U","MEAN_MOTION":14.73439136,"ECCENTRICITY":0.0006065,"INCLINATION":98.129,"RA_OF_ASC_NODE":244.8365,"ARG_OF_PERICENTER":99.9378,"MEAN_ANOMALY":260.2514,"EPHEMERIS_TYPE":0,"NORAD_CAT_ID":62932,"ELEMENT_SET_NO":999,"REV_AT_EPOCH":7573,"BSTAR":0.00016623,"MEAN_MOTION_DOT":0.00001027,"MEAN_MOTION_DDOT":0},{"OBJECT_NAME":"KINEIS-2B","OBJECT_ID":"2025-028G","EPOCH":"2026-07-08T11:08:27.356064","CLASSIFICATION_TYPE":"U","MEAN_MOTION":14.7344024,"ECCENTRICITY":0.0005023,"INCLINATION":97.9657,"RA_OF_ASC_NODE":241.9395,"ARG_OF_PERICENTER":88.904,"MEAN_ANOMALY":271.2744,"EPHEMERIS_TYPE":0,"NORAD_CAT_ID":62934,"ELEMENT_SET_NO":999,"REV_AT_EPOCH":7579,"BSTAR":0.00015904,"MEAN_MOTION_DOT":0.00000982,"MEAN_MOTION_DDOT":0},{"OBJECT_NAME":"KINEIS-4E","OBJECT_ID":"2025-056A","EPOCH":"2026-07-08T12:30:40.936896","CLASSIFICATION_TYPE":"U","MEAN_MOTION":14.72290052,"ECCENTRICITY":0.0003055,"INCLINATION":97.9062,"RA_OF_ASC_NODE":312.8269,"ARG_OF_PERICENTER":96.8746,"MEAN_ANOMALY":263.2809,"EPHEMERIS_TYPE":0,"NORAD_CAT_ID":63300,"ELEMENT_SET_NO":999,"REV_AT_EPOCH":7026,"BSTAR":0.00018962,"MEAN_MOTION_DOT":0.0000115,"MEAN_MOTION_DDOT":0},{"OBJECT_NAME":"KINEIS-4C","OBJECT_ID":"2025-056B","EPOCH":"2026-07-08T12:48:38.985984","CLASSIFICATION_TYPE":"U","MEAN_MOTION":14.72311623,"ECCENTRICITY":0.0002343,"INCLINATION":97.9115,"RA_OF_ASC_NODE":313.0835,"ARG_OF_PERICENTER":240.6674,"MEAN_ANOMALY":119.4299,"EPHEMERIS_TYPE":0,"NORAD_CAT_ID":63301,"ELEMENT_SET_NO":999,"REV_AT_EPOCH":7027,"BSTAR":0.00019185,"MEAN_MOTION_DOT":0.00001164,"MEAN_MOTION_DDOT":0},{"OBJECT_NAME":"KINEIS-4D","OBJECT_ID":"2025-056C","EPOCH":"2026-07-08T12:53:49.153344","CLASSIFICATION_TYPE":"U","MEAN_MOTION":14.72413639,"ECCENTRICITY":0.0001115,"INCLINATION":97.9036,"RA_OF_ASC_NODE":313.0655,"ARG_OF_PERICENTER":254.6996,"MEAN_ANOMALY":105.4088,"EPHEMERIS_TYPE":0,"NORAD_CAT_ID":63302,"ELEMENT_SET_NO":999,"REV_AT_EPOCH":7027,"BSTAR":0.00018362,"MEAN_MOTION_DOT":0.00001115,"MEAN_MOTION_DDOT":0},{"OBJECT_NAME":"KINEIS-4A","OBJECT_ID":"2025-056D","EPOCH":"2026-07-08T13:44:07.861344","CLASSIFICATION_TYPE":"U","MEAN_MOTION":14.72321268,"ECCENTRICITY":0.000159,"INCLINATION":97.9131,"RA_OF_ASC_NODE":313.0442,"ARG_OF_PERICENTER":165.3006,"MEAN_ANOMALY":194.8248,"EPHEMERIS_TYPE":0,"NORAD_CAT_ID":63303,"ELEMENT_SET_NO":999,"REV_AT_EPOCH":7027,"BSTAR":0.00018672,"MEAN_MOTION_DOT":0.00001132,"MEAN_MOTION_DDOT":0},{"OBJECT_NAME":"KINEIS-4B","OBJECT_ID":"2025-056E","EPOCH":"2026-07-08T11:41:21.094944","CLASSIFICATION_TYPE":"U","MEAN_MOTION":14.72315549,"ECCENTRICITY":0.0004754,"INCLINATION":97.9142,"RA_OF_ASC_NODE":313.0176,"ARG_OF_PERICENTER":216.0026,"MEAN_ANOMALY":144.0862,"EPHEMERIS_TYPE":0,"NORAD_CAT_ID":63304,"ELEMENT_SET_NO":999,"REV_AT_EPOCH":7025,"BSTAR":0.00018603,"MEAN_MOTION_DOT":0.00001128,"MEAN_MOTION_DDOT":0}]}
